start=new Date('2022-12-13T00:00:00.000Z').valueOf();
sats=[{"OBJECT_ID":"2021-115AW","SITE":"AFETR","RCS_SIZE":"LARGE","EPHEMERIS_TYPE":"0","LAUNCH_DATE":"2021-12-02","OBJECT_NAME":"STARLINK-3196","NORAD_CAT_ID":"49768","FILE":"3695286","DECAY_DATE":null,"MEAN_ELEMENT_THEORY":"SGP4","TLE_LINE1":"1 49768U 21115AW  22346.67987346  .00002928  00000-0  20196-3 0  9993","APOAPSIS":"541.403","OBJECT_TYPE":"PAYLOAD","EPOCH":"2022-12-12T16:19:01.066944","CLASSIFICATION_TYPE":"U","GP_ID":"220208654","MEAN_MOTION_DDOT":"0.0000000000000","TIME_SYSTEM":"UTC","REF_FRAME":"TEME","BSTAR":"0.00020196000000","ELEMENT_SET_NO":"999","CENTER_NAME":"EARTH","TLE_LINE2":"2 49768  53.2170  49.8675 0002421  35.0100 325.1051 15.08845496 57088","ARG_OF_PERICENTER":"35.0100","PERIAPSIS":"538.054","INCLINATION":"53.2170","MEAN_MOTION":"15.08845496","MEAN_MOTION_DOT":"0.00002928","PERIOD":"95.437","MEAN_ANOMALY":"325.1051","COUNTRY_CODE":"US","ECCENTRICITY":"0.00024210","REV_AT_EPOCH":"5708","SEMIMAJOR_AXIS":"6917.864","RA_OF_ASC_NODE":"49.8675"},{"PERIOD":"95.438","MEAN_ANOMALY":"316.8480","MEAN_MOTION_DOT":"0.00002843","COUNTRY_CODE":"US","SEMIMAJOR_AXIS":"6917.880","ECCENTRICITY":"0.00018470","REV_AT_EPOCH":"5707","RA_OF_ASC_NODE":"50.1815","MEAN_MOTION_DDOT":"0.0000000000000","TIME_SYSTEM":"UTC","REF_FRAME":"TEME","BSTAR":"0.00019665000000","CENTER_NAME":"EARTH","TLE_LINE2":"2 49769  53.2176  50.1815 0001847  43.2657 316.8480 15.08840143 57071","ELEMENT_SET_NO":"999","MEAN_MOTION":"15.08840143","ARG_OF_PERICENTER":"43.2657","PERIAPSIS":"538.467","INCLINATION":"53.2176","MEAN_ELEMENT_THEORY":"SGP4","DECAY_DATE":null,"TLE_LINE1":"1 49769U 21115AX  22346.60994805  .00002843  00000-0  19665-3 0  9990","EPOCH":"2022-12-12T14:38:19.511520","OBJECT_TYPE":"PAYLOAD","APOAPSIS":"541.023","CLASSIFICATION_TYPE":"U","GP_ID":"220208904","OBJECT_ID":"2021-115AX","EPHEMERIS_TYPE":"0","SITE":"AFETR","RCS_SIZE":"MEDIUM","FILE":"3695286","NORAD_CAT_ID":"49769","LAUNCH_DATE":"2021-12-02","OBJECT_NAME":"STARLINK-3208"},{"APOAPSIS":"541.307","EPOCH":"2022-12-12T10:02:48.389568","OBJECT_TYPE":"PAYLOAD","CLASSIFICATION_TYPE":"U","GP_ID":"220168054","DECAY_DATE":null,"MEAN_ELEMENT_THEORY":"SGP4","TLE_LINE1":"1 49770U 21115AY  22346.41861562  .00004886  00000-0  32487-3 0  9990","LAUNCH_DATE":"2021-12-02","OBJECT_NAME":"STARLINK-3191","NORAD_CAT_ID":"49770","FILE":"3694071","OBJECT_ID":"2021-115AY","SITE":"AFETR","RCS_SIZE":"LARGE","EPHEMERIS_TYPE":"0","ECCENTRICITY":"0.00022510","REV_AT_EPOCH":"5816","SEMIMAJOR_AXIS":"6917.885","RA_OF_ASC_NODE":"51.0387","MEAN_MOTION_DOT":"0.00004886","PERIOD":"95.438","MEAN_ANOMALY":"327.7107","COUNTRY_CODE":"US","ELEMENT_SET_NO":"999","CENTER_NAME":"EARTH","TLE_LINE2":"2 49770  53.2170  51.0387 0002251  32.4023 327.7107 15.08838603 58164","ARG_OF_PERICENTER":"32.4023","PERIAPSIS":"538.192","INCLINATION":"53.2170","MEAN_MOTION":"15.08838603","MEAN_MOTION_DDOT":"0.0000000000000","TIME_SYSTEM":"UTC","REF_FRAME":"TEME","BSTAR":"0.00032487000000"},{"ARG_OF_PERICENTER":"40.0676","PERIAPSIS":"538.214","INCLINATION":"53.2186","MEAN_MOTION":"15.08847012","ELEMENT_SET_NO":"999","CENTER_NAME":"EARTH","TLE_LINE2":"2 49771  53.2186  50.7144 0002183  40.0676 320.0476 15.08847012 57058","REF_FRAME":"TEME","BSTAR":"0.00009223100000","MEAN_MOTION_DDOT":"0.0000000000000","TIME_SYSTEM":"UTC","RA_OF_ASC_NODE":"50.7144","ECCENTRICITY":"0.00021830","REV_AT_EPOCH":"5705","SEMIMAJOR_AXIS":"6917.859","COUNTRY_CODE":"US","MEAN_MOTION_DOT":"0.00001180","PERIOD":"95.437","MEAN_ANOMALY":"320.0476","OBJECT_NAME":"STARLINK-3201","LAUNCH_DATE":"2021-12-02","FILE":"3694071","NORAD_CAT_ID":"49771","SITE":"AFETR","RCS_SIZE":"LARGE","EPHEMERIS_TYPE":"0","OBJECT_ID":"2021-115AZ","CLASSIFICATION_TYPE":"U","GP_ID":"220169300","APOAPSIS":"541.234","OBJECT_TYPE":"PAYLOAD","EPOCH":"2022-12-12T11:43:27.340896","TLE_LINE1":"1 49771U 21115AZ  22346.48851089  .00001180  00000-0  92231-4 0  9999","DECAY_DATE":null,"MEAN_ELEMENT_THEORY":"SGP4"},{"CLASSIFICATION_TYPE":"U","GP_ID":"220169061","APOAPSIS":"541.307","EPOCH":"2022-12-12T12:07:21.224064","OBJECT_TYPE":"PAYLOAD","TLE_LINE1":"1 50156U 21125A   22346.50510676  .00001281  00000-0  98565-4 0  9994","DECAY_DATE":null,"MEAN_ELEMENT_THEORY":"SGP4","LAUNCH_DATE":"2021-12-18","OBJECT_NAME":"STARLINK-3317","NORAD_CAT_ID":"50156","FILE":"3694071","SITE":"AFWTR","RCS_SIZE":"LARGE","EPHEMERIS_TYPE":"0","OBJECT_ID":"2021-125A","RA_OF_ASC_NODE":"160.6570","ECCENTRICITY":"0.00022710","REV_AT_EPOCH":"5801","SEMIMAJOR_AXIS":"6917.871","COUNTRY_CODE":"US","MEAN_MOTION_DOT":"0.00001281","PERIOD":"95.437","MEAN_ANOMALY":"314.7239","PERIAPSIS":"538.165","ARG_OF_PERICENTER":"45.3938","INCLINATION":"53.2166","MEAN_MOTION":"15.08843126","ELEMENT_SET_NO":"999","CENTER_NAME":"EARTH","TLE_LINE2":"2 50156  53.2166 160.6570 0002271  45.3938 314.7239 15.08843126 58012","REF_FRAME":"TEME","BSTAR":"0.00009856500000","MEAN_MOTION_DDOT":"0.0000000000000","TIME_SYSTEM":"UTC"},{"MEAN_MOTION":"15.08835733","INCLINATION":"53.2184","PERIAPSIS":"537.764","ARG_OF_PERICENTER":"40.8726","CENTER_NAME":"EARTH","TLE_LINE2":"2 50157  53.2184 173.2138 0002883  40.8726 319.2482 15.08835733 57796","ELEMENT_SET_NO":"999","REF_FRAME":"TEME","BSTAR":"0.00022157000000","MEAN_MOTION_DDOT":"0.0000000000000","TIME_SYSTEM":"UTC","RA_OF_ASC_NODE":"173.2138","SEMIMAJOR_AXIS":"6917.893","ECCENTRICITY":"0.00028830","REV_AT_EPOCH":"5779","COUNTRY_CODE":"US","PERIOD":"95.438","MEAN_ANOMALY":"319.2482","MEAN_MOTION_DOT":"0.00003239","FILE":"3694071","NORAD_CAT_ID":"50157","OBJECT_NAME":"STARLINK-3313","LAUNCH_DATE":"2021-12-18","EPHEMERIS_TYPE":"0","SITE":"AFWTR","RCS_SIZE":"LARGE","OBJECT_ID":"2021-125B","CLASSIFICATION_TYPE":"U","GP_ID":"220167821","EPOCH":"2022-12-11T22:23:18.735072","OBJECT_TYPE":"PAYLOAD","APOAPSIS":"541.753","TLE_LINE1":"1 50157U 21125B   22345.93285573  .00003239  00000-0  22157-3 0  9994","MEAN_ELEMENT_THEORY":"SGP4","DECAY_DATE":null},{"EPHEMERIS_TYPE":"0","RCS_SIZE":"LARGE","SITE":"AFWTR","OBJECT_ID":"2021-125C","NORAD_CAT_ID":"50158","FILE":"3695286","OBJECT_NAME":"STARLINK-3309","LAUNCH_DATE":"2021-12-18","TLE_LINE1":"1 50158U 21125C   22346.78293884  .00004641  00000-0  30951-3 0  9992","MEAN_ELEMENT_THEORY":"SGP4","DECAY_DATE":null,"GP_ID":"220210171","CLASSIFICATION_TYPE":"U","OBJECT_TYPE":"PAYLOAD","EPOCH":"2022-12-12T18:47:25.915776","APOAPSIS":"541.658","BSTAR":"0.00030951000000","REF_FRAME":"TEME","TIME_SYSTEM":"UTC","MEAN_MOTION_DDOT":"0.0000000000000","MEAN_MOTION":"15.08841083","PERIAPSIS":"537.826","INCLINATION":"53.2152","ARG_OF_PERICENTER":"48.1117","TLE_LINE2":"2 50158  53.2152 169.4103 0002770  48.1117 312.0111 15.08841083 57943","CENTER_NAME":"EARTH","ELEMENT_SET_NO":"999","COUNTRY_CODE":"US","MEAN_ANOMALY":"312.0111","PERIOD":"95.437","MEAN_MOTION_DOT":"0.00004641","RA_OF_ASC_NODE":"169.4103","SEMIMAJOR_AXIS":"6917.877","REV_AT_EPOCH":"5794","ECCENTRICITY":"0.00027700"},{"FILE":"3694071","NORAD_CAT_ID":"50159","OBJECT_NAME":"STARLINK-3297","LAUNCH_DATE":"2021-12-18","OBJECT_ID":"2021-125D","EPHEMERIS_TYPE":"0","RCS_SIZE":"LARGE","SITE":"AFWTR","OBJECT_TYPE":"PAYLOAD","EPOCH":"2022-12-11T23:37:28.686720","APOAPSIS":"541.817","GP_ID":"220168817","CLASSIFICATION_TYPE":"U","MEAN_ELEMENT_THEORY":"SGP4","DECAY_DATE":null,"TLE_LINE1":"1 50159U 21125D   22345.98435980  .00002492  00000-0  17464-3 0  9995","TLE_LINE2":"2 50159  53.2158 172.9765 0003023  45.7945 314.3295 15.08846350 57756","CENTER_NAME":"EARTH","ELEMENT_SET_NO":"999","MEAN_MOTION":"15.08846350","PERIAPSIS":"537.635","INCLINATION":"53.2158","ARG_OF_PERICENTER":"45.7945","TIME_SYSTEM":"UTC","MEAN_MOTION_DDOT":"0.0000000000000","BSTAR":"0.00017464000000","REF_FRAME":"TEME","SEMIMAJOR_AXIS":"6917.861","REV_AT_EPOCH":"5775","ECCENTRICITY":"0.00030230","RA_OF_ASC_NODE":"172.9765","MEAN_ANOMALY":"314.3295","PERIOD":"95.437","MEAN_MOTION_DOT":"0.00002492","COUNTRY_CODE":"US"},{"TLE_LINE2":"2 50160  53.2156 173.2486 0003332  47.0234 313.1037 15.08838471 57755","CENTER_NAME":"EARTH","ELEMENT_SET_NO":"999","MEAN_MOTION":"15.08838471","PERIAPSIS":"537.445","ARG_OF_PERICENTER":"47.0234","INCLINATION":"53.2156","TIME_SYSTEM":"UTC","MEAN_MOTION_DDOT":"0.0000000000000","BSTAR":"0.00013203000000","REF_FRAME":"TEME","SEMIMAJOR_AXIS":"6917.885","REV_AT_EPOCH":"5775","ECCENTRICITY":"0.00033320","RA_OF_ASC_NODE":"173.2486","MEAN_ANOMALY":"313.1037","PERIOD":"95.438","MEAN_MOTION_DOT":"0.00001813","COUNTRY_CODE":"US","NORAD_CAT_ID":"50160","FILE":"3694071","LAUNCH_DATE":"2021-12-18","OBJECT_NAME":"STARLINK-3288","OBJECT_ID":"2021-125E","EPHEMERIS_TYPE":"0","RCS_SIZE":"LARGE","SITE":"AFWTR","EPOCH":"2022-12-11T22:12:42.291936","OBJECT_TYPE":"PAYLOAD","APOAPSIS":"542.055","GP_ID":"220169562","CLASSIFICATION_TYPE":"U","MEAN_ELEMENT_THEORY":"SGP4","DECAY_DATE":null,"TLE_LINE1":"1 50160U 21125E   22345.92548949  .00001813  00000-0  13203-3 0  9994"},{"FILE":"3694071","NORAD_CAT_ID":"50161","OBJECT_NAME":"STARLINK-3304","LAUNCH_DATE":"2021-12-18","OBJECT_ID":"2021-125F","EPHEMERIS_TYPE":"0","SITE":"AFWTR","RCS_SIZE":"LARGE","OBJECT_TYPE":"PAYLOAD","EPOCH":"2022-12-11T22:18:01.482912","APOAPSIS":"542.229","CLASSIFICATION_TYPE":"U","GP_ID":"220168322","MEAN_ELEMENT_THEORY":"SGP4","DECAY_DATE":null,"TLE_LINE1":"1 50161U 21125F   22345.92918383  .00003710  00000-0  25115-3 0  9991","CENTER_NAME":"EARTH","TLE_LINE2":"2 50161  53.2158 173.2295 0003542  45.9756 314.1527 15.08829191 57748","ELEMENT_SET_NO":"999","MEAN_MOTION":"15.08829191","INCLINATION":"53.2158","PERIAPSIS":"537.328","ARG_OF_PERICENTER":"45.9756","MEAN_MOTION_DDOT":"0.0000000000000","TIME_SYSTEM":"UTC","REF_FRAME":"TEME","BSTAR":"0.00025115000000","SEMIMAJOR_AXIS":"6917.913","ECCENTRICITY":"0.00035420","REV_AT_EPOCH":"5774","RA_OF_ASC_NODE":"173.2295","PERIOD":"95.438","MEAN_ANOMALY":"314.1527","MEAN_MOTION_DOT":"0.00003710","COUNTRY_CODE":"US"}];
